ISS (ZARYA)             
1 25544U 98067A   25353.76392193  .00006675  00000+0  12626-3 0  9991
2 25544  51.6318 107.6945 0003187 273.0117  87.0507 15.49672026543942
CSS (TIANHE)            
1 48274U 21035A   25354.14404780  .00018318  00000+0  22786-3 0  9991
2 48274  41.4684 331.7462 0007748  96.2927 263.8794 15.59493882265186
ISS (NAUKA)             
1 49044U 21066A   25353.76392194  .00006675  00000+0  12626-3 0  9998
2 49044  51.6318 107.6945 0003186 273.0117  87.0507 15.49672026230440
FREGAT DEB              
1 49271U 11037PF  25353.93861561  .00003390  00000+0  77751-2 0  9995
2 49271  51.6435 178.1467 0862536 239.3977 111.9064 12.34497882202827
CSS (WENTIAN)           
1 53239U 22085A   25353.95192851  .00017657  00000+0  21989-3 0  9994
2 53239  41.4684 332.9127 0007741  94.7688 265.4034 15.59484120173845
CSS (MENGTIAN)          
1 54216U 22143A   25353.95192851  .00017657  00000+0  21989-3 0  9995
2 54216  41.4684 332.9127 0007741  94.7688 265.4034 15.59484120158642
SHENZHOU-20 (SZ-20)     
1 63632U 25082A   25353.95192851  .00017657  00000+0  21989-3 0  9992
2 63632  41.4684 332.9127 0007741  94.7688 265.4034 15.59484120255305
PROGRESS-MS 31          
1 64751U 25146A   25353.76392194  .00006675  00000+0  12626-3 0  9993
2 64751  51.6318 107.6945 0003186 273.0117  87.0507 15.49672026  6757
TIANZHOU-9              
1 64786U 25149A   25353.95192851  .00017657  00000+0  21989-3 0  9997
2 64786  41.4684 332.9127 0007741  94.7688 265.4034 15.59484120255306
CREW DRAGON 11          
1 65077U 25166A   25353.76392194  .00006675  00000+0  12626-3 0  9997
2 65077  51.6318 107.6945 0003186 273.0117  87.0507 15.49672026  2148
DRAGON CRS-33           
1 65304U 25186A   25353.76392194  .00006675  00000+0  12626-3 0  9992
2 65304  51.6318 107.6945 0003186 273.0117  87.0507 15.49672026   116
PROGRESS-MS 32          
1 65586U 25204A   25353.76392194  .00006675  00000+0  12626-3 0  9995
2 65586  51.6318 107.6945 0003186 273.0117  87.0507 15.49672026   275
