CCSDS_OMM_VERS = 2.0
CREATION_DATE  = 
ORIGINATOR     = 

OBJECT_NAME    = ISS (ZARYA)
OBJECT_ID      = 1998-067A
CENTER_NAME    = EARTH
REF_FRAME      = TEME
TIME_SYSTEM    = UTC
MEAN_ELEMENT_THEORY = SGP/SGP4

EPOCH          = 2025-12-19T18:20:02.854752
MEAN_MOTION    = 15.49672026
ECCENTRICITY   = .0003187
INCLINATION    = 51.6318
RA_OF_ASC_NODE = 107.6945
ARG_OF_PERICENTER = 273.0117
MEAN_ANOMALY   = 87.0507

EPHEMERIS_TYPE = 0
CLASSIFICATION_TYPE = U
NORAD_CAT_ID   = 25544
ELEMENT_SET_NO = 999
REV_AT_EPOCH   = 54394
BSTAR          = .12626E-3
MEAN_MOTION_DOT = .6675E-4
MEAN_MOTION_DDOT = 0

CCSDS_OMM_VERS = 2.0
CREATION_DATE  = 
ORIGINATOR     = 

OBJECT_NAME    = CSS (TIANHE)
OBJECT_ID      = 2021-035A
CENTER_NAME    = EARTH
REF_FRAME      = TEME
TIME_SYSTEM    = UTC
MEAN_ELEMENT_THEORY = SGP/SGP4

EPOCH          = 2025-12-20T03:27:25.729920
MEAN_MOTION    = 15.59493882
ECCENTRICITY   = .0007748
INCLINATION    = 41.4684
RA_OF_ASC_NODE = 331.7462
ARG_OF_PERICENTER = 96.2927
MEAN_ANOMALY   = 263.8794

EPHEMERIS_TYPE = 0
CLASSIFICATION_TYPE = U
NORAD_CAT_ID   = 48274
ELEMENT_SET_NO = 999
REV_AT_EPOCH   = 26518
BSTAR          = .22786E-3
MEAN_MOTION_DOT = .18318E-3
MEAN_MOTION_DDOT = 0

CCSDS_OMM_VERS = 2.0
CREATION_DATE  = 
ORIGINATOR     = 

OBJECT_NAME    = ISS (NAUKA)
OBJECT_ID      = 2021-066A
CENTER_NAME    = EARTH
REF_FRAME      = TEME
TIME_SYSTEM    = UTC
MEAN_ELEMENT_THEORY = SGP/SGP4

EPOCH          = 2025-12-19T18:20:02.855616
MEAN_MOTION    = 15.49672026
ECCENTRICITY   = .00031868
INCLINATION    = 51.6318
RA_OF_ASC_NODE = 107.6945
ARG_OF_PERICENTER = 273.0117
MEAN_ANOMALY   = 87.0507

EPHEMERIS_TYPE = 0
CLASSIFICATION_TYPE = U
NORAD_CAT_ID   = 49044
ELEMENT_SET_NO = 999
REV_AT_EPOCH   = 23044
BSTAR          = .1262585E-3
MEAN_MOTION_DOT = .6675E-4
MEAN_MOTION_DDOT = 0

CCSDS_OMM_VERS = 2.0
CREATION_DATE  = 
ORIGINATOR     = 

OBJECT_NAME    = FREGAT DEB
OBJECT_ID      = 2011-037PF
CENTER_NAME    = EARTH
REF_FRAME      = TEME
TIME_SYSTEM    = UTC
MEAN_ELEMENT_THEORY = SGP/SGP4

EPOCH          = 2025-12-19T22:31:36.388704
MEAN_MOTION    = 12.34497882
ECCENTRICITY   = .0862536
INCLINATION    = 51.6435
RA_OF_ASC_NODE = 178.1467
ARG_OF_PERICENTER = 239.3977
MEAN_ANOMALY   = 111.9064

EPHEMERIS_TYPE = 0
CLASSIFICATION_TYPE = U
NORAD_CAT_ID   = 49271
ELEMENT_SET_NO = 999
REV_AT_EPOCH   = 20282
BSTAR          = .77751E-2
MEAN_MOTION_DOT = .339E-4
MEAN_MOTION_DDOT = 0

CCSDS_OMM_VERS = 2.0
CREATION_DATE  = 
ORIGINATOR     = 

OBJECT_NAME    = CSS (WENTIAN)
OBJECT_ID      = 2022-085A
CENTER_NAME    = EARTH
REF_FRAME      = TEME
TIME_SYSTEM    = UTC
MEAN_ELEMENT_THEORY = SGP/SGP4

EPOCH          = 2025-12-19T22:50:46.623264
MEAN_MOTION    = 15.59484120
ECCENTRICITY   = .00077419
INCLINATION    = 41.4684
RA_OF_ASC_NODE = 332.9127
ARG_OF_PERICENTER = 94.7688
MEAN_ANOMALY   = 265.4034

EPHEMERIS_TYPE = 0
CLASSIFICATION_TYPE = U
NORAD_CAT_ID   = 53239
ELEMENT_SET_NO = 999
REV_AT_EPOCH   = 17384
BSTAR          = .2198914E-3
MEAN_MOTION_DOT = .17657E-3
MEAN_MOTION_DDOT = 0

CCSDS_OMM_VERS = 2.0
CREATION_DATE  = 
ORIGINATOR     = 

OBJECT_NAME    = CSS (MENGTIAN)
OBJECT_ID      = 2022-143A
CENTER_NAME    = EARTH
REF_FRAME      = TEME
TIME_SYSTEM    = UTC
MEAN_ELEMENT_THEORY = SGP/SGP4

EPOCH          = 2025-12-19T22:50:46.623264
MEAN_MOTION    = 15.59484120
ECCENTRICITY   = .00077419
INCLINATION    = 41.4684
RA_OF_ASC_NODE = 332.9127
ARG_OF_PERICENTER = 94.7688
MEAN_ANOMALY   = 265.4034

EPHEMERIS_TYPE = 0
CLASSIFICATION_TYPE = U
NORAD_CAT_ID   = 54216
ELEMENT_SET_NO = 999
REV_AT_EPOCH   = 15864
BSTAR          = .2198914E-3
MEAN_MOTION_DOT = .17657E-3
MEAN_MOTION_DDOT = 0

CCSDS_OMM_VERS = 2.0
CREATION_DATE  = 
ORIGINATOR     = 

OBJECT_NAME    = SHENZHOU-20 (SZ-20)
OBJECT_ID      = 2025-082A
CENTER_NAME    = EARTH
REF_FRAME      = TEME
TIME_SYSTEM    = UTC
MEAN_ELEMENT_THEORY = SGP/SGP4

EPOCH          = 2025-12-19T22:50:46.623264
MEAN_MOTION    = 15.59484120
ECCENTRICITY   = .00077419
INCLINATION    = 41.4684
RA_OF_ASC_NODE = 332.9127
ARG_OF_PERICENTER = 94.7688
MEAN_ANOMALY   = 265.4034

EPHEMERIS_TYPE = 0
CLASSIFICATION_TYPE = U
NORAD_CAT_ID   = 63632
ELEMENT_SET_NO = 999
REV_AT_EPOCH   = 25530
BSTAR          = .2198914E-3
MEAN_MOTION_DOT = .17657E-3
MEAN_MOTION_DDOT = 0

CCSDS_OMM_VERS = 2.0
CREATION_DATE  = 
ORIGINATOR     = 

OBJECT_NAME    = PROGRESS-MS 31
OBJECT_ID      = 2025-146A
CENTER_NAME    = EARTH
REF_FRAME      = TEME
TIME_SYSTEM    = UTC
MEAN_ELEMENT_THEORY = SGP/SGP4

EPOCH          = 2025-12-19T18:20:02.855616
MEAN_MOTION    = 15.49672026
ECCENTRICITY   = .00031868
INCLINATION    = 51.6318
RA_OF_ASC_NODE = 107.6945
ARG_OF_PERICENTER = 273.0117
MEAN_ANOMALY   = 87.0507

EPHEMERIS_TYPE = 0
CLASSIFICATION_TYPE = U
NORAD_CAT_ID   = 64751
ELEMENT_SET_NO = 999
REV_AT_EPOCH   = 675
BSTAR          = .1262585E-3
MEAN_MOTION_DOT = .6675E-4
MEAN_MOTION_DDOT = 0

CCSDS_OMM_VERS = 2.0
CREATION_DATE  = 
ORIGINATOR     = 

OBJECT_NAME    = TIANZHOU-9
OBJECT_ID      = 2025-149A
CENTER_NAME    = EARTH
REF_FRAME      = TEME
TIME_SYSTEM    = UTC
MEAN_ELEMENT_THEORY = SGP/SGP4

EPOCH          = 2025-12-19T22:50:46.623264
MEAN_MOTION    = 15.59484120
ECCENTRICITY   = .00077419
INCLINATION    = 41.4684
RA_OF_ASC_NODE = 332.9127
ARG_OF_PERICENTER = 94.7688
MEAN_ANOMALY   = 265.4034

EPHEMERIS_TYPE = 0
CLASSIFICATION_TYPE = U
NORAD_CAT_ID   = 64786
ELEMENT_SET_NO = 999
REV_AT_EPOCH   = 25530
BSTAR          = .2198914E-3
MEAN_MOTION_DOT = .17657E-3
MEAN_MOTION_DDOT = 0

CCSDS_OMM_VERS = 2.0
CREATION_DATE  = 
ORIGINATOR     = 

OBJECT_NAME    = CREW DRAGON 11
OBJECT_ID      = 2025-166A
CENTER_NAME    = EARTH
REF_FRAME      = TEME
TIME_SYSTEM    = UTC
MEAN_ELEMENT_THEORY = SGP/SGP4

EPOCH          = 2025-12-19T18:20:02.855616
MEAN_MOTION    = 15.49672026
ECCENTRICITY   = .00031868
INCLINATION    = 51.6318
RA_OF_ASC_NODE = 107.6945
ARG_OF_PERICENTER = 273.0117
MEAN_ANOMALY   = 87.0507

EPHEMERIS_TYPE = 0
CLASSIFICATION_TYPE = U
NORAD_CAT_ID   = 65077
ELEMENT_SET_NO = 999
REV_AT_EPOCH   = 214
BSTAR          = .1262585E-3
MEAN_MOTION_DOT = .6675E-4
MEAN_MOTION_DDOT = 0

CCSDS_OMM_VERS = 2.0
CREATION_DATE  = 
ORIGINATOR     = 

OBJECT_NAME    = DRAGON CRS-33
OBJECT_ID      = 2025-186A
CENTER_NAME    = EARTH
REF_FRAME      = TEME
TIME_SYSTEM    = UTC
MEAN_ELEMENT_THEORY = SGP/SGP4

EPOCH          = 2025-12-19T18:20:02.855616
MEAN_MOTION    = 15.49672026
ECCENTRICITY   = .00031868
INCLINATION    = 51.6318
RA_OF_ASC_NODE = 107.6945
ARG_OF_PERICENTER = 273.0117
MEAN_ANOMALY   = 87.0507

EPHEMERIS_TYPE = 0
CLASSIFICATION_TYPE = U
NORAD_CAT_ID   = 65304
ELEMENT_SET_NO = 999
REV_AT_EPOCH   = 11
BSTAR          = .1262585E-3
MEAN_MOTION_DOT = .6675E-4
MEAN_MOTION_DDOT = 0

CCSDS_OMM_VERS = 2.0
CREATION_DATE  = 
ORIGINATOR     = 

OBJECT_NAME    = PROGRESS-MS 32
OBJECT_ID      = 2025-204A
CENTER_NAME    = EARTH
REF_FRAME      = TEME
TIME_SYSTEM    = UTC
MEAN_ELEMENT_THEORY = SGP/SGP4

EPOCH          = 2025-12-19T18:20:02.855616
MEAN_MOTION    = 15.49672026
ECCENTRICITY   = .00031868
INCLINATION    = 51.6318
RA_OF_ASC_NODE = 107.6945
ARG_OF_PERICENTER = 273.0117
MEAN_ANOMALY   = 87.0507

EPHEMERIS_TYPE = 0
CLASSIFICATION_TYPE = U
NORAD_CAT_ID   = 65586
ELEMENT_SET_NO = 999
REV_AT_EPOCH   = 27
BSTAR          = .1262585E-3
MEAN_MOTION_DOT = .6675E-4
MEAN_MOTION_DDOT = 0

